IRIDIUM 136             
1 42962U 17061H   24099.42725293  .00000130  00000+0  39534-4 0  9997
2 42962  86.4022 359.4769 0002309  92.3645 267.7815 14.34218698340204
